[{"OBJECT_NAME":"STARLINK-31180","OBJECT_ID":"2024-005E","EPOCH":"2026-03-09T21:07:43.552416","MEAN_MOTION":15.26747824,"ECCENTRICITY":0.00016342,"INCLINATION":43.0014,"RA_OF_ASC_NODE":218.6106,"ARG_OF_PERICENTER":269.2542,"MEAN_ANOMALY":90.8123,"EPHEMERIS_TYPE":0,"CLASSIFICATION_TYPE":"U","NORAD_CAT_ID":58732,"ELEMENT_SET_NO":999,"REV_AT_EPOCH":12046,"BSTAR":0.00057457477,"MEAN_MOTION_DOT":0.00015188,"MEAN_MOTION_DDOT":0},{"OBJECT_NAME":"PEGASUS R\/B","OBJECT_ID":"2007-015B","EPOCH":"2026-03-09T10:58:33.801024","MEAN_MOTION":15.26741121,"ECCENTRICITY":0.00105976,"INCLINATION":97.9168,"RA_OF_ASC_NODE":31.3919,"ARG_OF_PERICENTER":317.6341,"MEAN_ANOMALY":42.4077,"EPHEMERIS_TYPE":0,"CLASSIFICATION_TYPE":"U","NORAD_CAT_ID":31305,"ELEMENT_SET_NO":999,"REV_AT_EPOCH":3383,"BSTAR":0.00044093522,"MEAN_MOTION_DOT":0.00011537,"MEAN_MOTION_DDOT":0}]
